[{"OBJECT_NAME":"STARLINK-31348","OBJECT_ID":"2024-044W","EPOCH":"2026-03-09T00:21:37.192320","MEAN_MOTION":15.27614686,"ECCENTRICITY":7.914e-5,"INCLINATION":42.9985,"RA_OF_ASC_NODE":64.0168,"ARG_OF_PERICENTER":240.0943,"MEAN_ANOMALY":119.9831,"EPHEMERIS_TYPE":0,"CLASSIFICATION_TYPE":"U","NORAD_CAT_ID":59172,"ELEMENT_SET_NO":999,"REV_AT_EPOCH":11400,"BSTAR":0.0010110982,"MEAN_MOTION_DOT":0.00027695,"MEAN_MOTION_DDOT":0},{"OBJECT_NAME":"TRANSPORTER-13 OBJECT AH","OBJECT_ID":"2025-052AH","EPOCH":"2026-03-09T15:34:17.115744","MEAN_MOTION":15.25468797,"ECCENTRICITY":0.000807,"INCLINATION":97.3962,"RA_OF_ASC_NODE":323.1443,"ARG_OF_PERICENTER":138.7508,"MEAN_ANOMALY":221.4341,"EPHEMERIS_TYPE":0,"CLASSIFICATION_TYPE":"U","NORAD_CAT_ID":63241,"ELEMENT_SET_NO":999,"REV_AT_EPOCH":5475,"BSTAR":0.00055931,"MEAN_MOTION_DOT":0.00014108,"MEAN_MOTION_DDOT":0}]
