STARLINK-31348          
1 59172U 24044W   26068.01501380  .00027695  00000+0  10111-2 0  9992
2 59172  42.9985  64.0168 0000791 240.0943 119.9831 15.27614686114001
TRANSPORTER-13 OBJECT AH
1 63241U 25052AH  26068.64880921  .00014108  00000+0  55931-3 0  9999
2 63241  97.3962 323.1443 0008070 138.7508 221.4341 15.25468797 54753
